ONEWEB-0018             
1 45434U 20020L   25211.16924001  .00000445  00000+0  12205-2 0  9992
2 45434  87.8809  85.2453 0001818  78.7911 281.3421 13.11419546260431
ONEWEB-0083             
1 45435U 20020M   25210.70127950  .00000053  00000+0  11382-3 0  9991
2 45435  87.8817  85.3242 0001719  78.1315 282.0005 13.11418439260403
ONEWEB-0095             
1 45436U 20020N   25211.15070306 -.00000328  00000+0 -96155-3 0  9992
2 45436  87.8806  85.2586 0001048  88.9239 271.2009 13.11420302260474
ONEWEB-0092             
1 45437U 20020P   25211.19889957 -.00000029  00000+0 -11687-3 0  9992
2 45437  87.8804  85.2370 0001526  83.5359 276.5942 13.11416277260581
ONEWEB-0085             
1 45438U 20020Q   25211.15142371 -.00000276  00000+0 -81328-3 0  9994
2 45438  87.8810  85.2590 0001609  82.0524 278.0787 13.11418805260474
ONEWEB-0096             
1 45439U 20020R   25210.70297121  .00000186  00000+0  48893-3 0  9997
2 45439  87.8821  85.3155 0001966  81.4885 278.6466 13.11418866260392
ONEWEB-0037             
1 45440U 20020S   25211.14125604 -.00000516  00000+0 -14919-2 0  9994
2 45440  87.8824  85.1922 0001679  81.7432 278.3887 13.11416501260498
ONEWEB-0042             
1 45441U 20020T   25211.37932250 -.00000507  00000+0 -14651-2 0  9996
2 45441  87.8815  85.1900 0001763  83.4548 276.6781 13.11420775260498
